{"type": "FeatureCollection", "features": [{"type": "Feature", "properties": {"name": "analysis_envelope", "buffer_km": 3.0}, "geometry": {"type": "Polygon", "coordinates": [[[-71.33448454173859, 42.27751415375464], [-71.33421411945247, 42.27822481082954], [-71.33291739046847, 42.28068391661972], [-71.331303336158, 42.28303720003029], [-71.32938736293494, 42.28526214858719], [-71.32718777114029, 42.28733747524927], [-71.3247255807697, 42.2892433224828], [-71.32063344498756, 42.29211520118682], [-71.31981742131413, 42.292687582227096], [-71.31978211133583, 42.2927123161091], [-71.30463551803435, 42.30330521752494], [-71.29687318053728, 42.30874152948313], [-71.29681134583612, 42.308784728104094], [-71.29605992900234, 42.30930844548518], [-71.29779499850618, 42.3106881376391], [-71.30003349073361, 42.31287728913947], [-71.30196080882997, 42.315223911641716], [-71.30355697522704, 42.31770372440404], [-71.30480543274287, 42.320291065665316], [-71.30569321727735, 42.32295915776924], [-71.30621109359694, 42.32568038394781], [-71.30654667210202, 42.32845827978876], [-71.30669104187541, 42.33107050029674], [-71.3064943430574, 42.33368083813528], [-71.30595837692121, 42.336264832263716], [-71.30508812541223, 42.338798265572656], [-71.30389170596871, 42.341257391975326], [-71.30238029684384, 42.34361915918828], [-71.30056803357712, 42.34586142510309], [-71.30025691368263, 42.346173385181935], [-71.30074563765402, 42.34676186728217], [-71.30205899854808, 42.348715158803095], [-71.30216313413928, 42.34881335855116], [-71.30425825001903, 42.35100511878225], [-71.30604955359894, 42.35334041237142], [-71.30751929403837, 42.3557961426171], [-71.30865289551367, 42.35834801895379], [-71.30943910267453, 42.360970796852584], [-71.30987009348063, 42.36363852725953], [-71.30988536636545, 42.364212638359525], [-71.31041765764765, 42.36508988862535], [-71.31154519776088, 42.36756169180044], [-71.3123458856171, 42.37010264042744], [-71.31281220973435, 42.37268902308752], [-71.3129397768381, 42.37529670150002], [-71.31272735437497, 42.377901335688605], [-71.31217688357415, 42.380478611138535], [-71.31131848742078, 42.38293291915949], [-71.31296966216385, 42.38455776756803], [-71.31482996744829, 42.386819564242494], [-71.31629982088288, 42.389078427508025], [-71.3180438923486, 42.391196360287026], [-71.31961902341831, 42.393624012615064], [-71.32086017386027, 42.396155884097574], [-71.32175496089422, 42.39876679753854], [-71.32229444231893, 42.40143078662942], [-71.32247320707961, 42.404121353952185], [-71.32228943084809, 42.406811734389436], [-71.32174489599399, 42.40947516132772], [-71.32084497567557, 42.41208513300925], [-71.31959858213632, 42.414615676378986], [-71.31498710771807, 42.42270000136735], [-71.31341493178871, 42.42511404117028], [-71.31152739662441, 42.42740070645972], [-71.3093430723482, 42.4295374604596], [-71.30688346063765, 42.43150324171082], [-71.30417278343637, 42.43327867213936], [-71.30123774452294, 42.43484624856684], [-71.30075424805001, 42.435053877425084], [-71.30062083393966, 42.43527948498144], [-71.29902240355304, 42.43765689023377], [-71.29711633050108, 42.439906475886254], [-71.2949210283133, 42.442006472646014], [-71.29245771569408, 42.443936556736645], [-71.28975021175644, 42.445678047044034], [-71.28682470577597, 42.44721408639537], [-71.28370950368813, 42.44852980519472], [-71.28043475378914, 42.4496124658088], [-71.27703215431491, 42.4504515862834], [-71.27353464575947, 42.45103904217418], [-71.26997609095248, 42.45136914548823], [-71.26639094604269, 42.4514386999594], [-71.2628139256287, 42.45124703211162], [-71.25927966533983, 42.450795997804555], [-71.25582238519604, 42.45008996419657], [-71.2524755570682, 42.44913576730318], [-71.24222933703196, 42.44577647490828], [-71.22344111740942, 42.43960990541515], [-71.22187207016887, 42.441110685875415], [-71.22107648803824, 42.44190352612935], [-71.21929765729705, 42.44377125465424], [-71.21532476550209, 42.448029932233055], [-71.21335145224936, 42.45041100824929], [-71.2114071095818, 42.45252533672187], [-71.20920123704734, 42.45449391261603], [-71.2067536164153, 42.4562990614773], [-71.20408620566292, 42.45792457472264], [-71.20122294198428, 42.45935585556589], [-71.19818952677596, 42.46058005047424], [-71.19501319453795, 42.461586164957836], [-71.19172246778207, 42.46236516263698], [-71.18834690017398, 42.462910046682175], [-71.18491681024837, 42.46321592288328], [-71.18146300812758, 42.46328004377127], [-71.17289143942585, 42.463138002176734], [-71.16403474895338, 42.46299095842984], [-71.15528523023536, 42.462841295233886], [-71.15355210046327, 42.46284341391399], [-71.15311807200669, 42.463746724610886], [-71.15158341839434, 42.46615705778254], [-71.14973529338444, 42.46844365786567], [-71.14759166712086, 42.47058425066981], [-71.14517339457012, 42.47255798213811], [-71.1425040130083, 42.47434562196604], [-71.13960951305961, 42.47592975143684], [-71.13651808550817, 42.47729493362152], [-71.13325984635487, 42.478427864261846], [-71.12986654281508, 42.47931750184356], [-71.12637124315171, 42.47995517557229], [-71.122808013406, 42.480334670181826], [-71.11921158422606, 42.48045228673371], [-71.11561701109613, 42.48030687880476], [-71.11205933133971, 42.47989986370329], [-71.10857322130313, 42.47923520860258], [-71.1051926571241, 42.478319391729656], [-71.09242723951839, 42.474320956394216], [-71.075461493618, 42.47062312721291], [-71.07206244771672, 42.4699014232289], [-71.06859332981189, 42.46902280731334], [-71.06534080424157, 42.46791784174231], [-71.06045434576926, 42.468421233213604], [-71.05528271179406, 42.468951636963254], [-71.04919245853078, 42.46957804654244], [-71.04308061247397, 42.4702052372571], [-71.04227723837401, 42.47076053677906], [-71.0393675008836, 42.472400781549865], [-71.03625040691466, 42.47381702147552], [-71.03295730487369, 42.47499500793488], [-71.03285400032091, 42.47502290701312], [-71.03513103493925, 42.48100423314461], [-71.03761412804518, 42.48268996179193], [-71.04005553082914, 42.48471733142099], [-71.04220965725622, 42.486915890937], [-71.04405471030344, 42.48926342511768], [-71.04557200956111, 42.49173621092252], [-71.04674618106942, 42.49430925677314], [-71.04756531403397, 42.4969565547416], [-71.04802108278481, 42.49965134311807], [-71.0481088326851, 42.5023663767196], [-71.04782762905121, 42.50507420221901], [-71.04718026851486, 42.50774743571672], [-71.04617325263558, 42.51035903975007], [-71.04481672395363, 42.512882596934986], [-71.04312436505771, 42.515292577463086], [-71.04111326162212, 42.51756459773445], [-71.03880373074166, 42.51967566749184], [-71.03621911625567, 42.52160442293411], [-71.03338555309948, 42.5233313434258], [-71.02349702822336, 42.528763177807434], [-71.02065447845266, 42.53017630642788], [-71.01925800439453, 42.53073777963451], [-71.0188897284192, 42.53104684511035], [-71.01621843667176, 42.53288187990699], [-71.01331289843314, 42.53451069037846], [-71.01020208914393, 42.53591702400901], [-71.00691703905619, 42.537086847198765], [-71.0034905230763, 42.538008485751334], [-70.999956732906, 42.53867274176969], [-70.99635093479597, 42.53907298577418], [-70.99270911637949, 42.539205223107395], [-70.9890676261722, 42.53906813395103], [-70.98625965040834, 42.538752632007345], [-70.98527512518932, 42.538754117131184], [-70.98186795192734, 42.5385223881449], [-70.97850510174591, 42.53805576934791], [-70.97521612892113, 42.53735836169302], [-70.97202993602085, 42.53643629429111], [-70.96897451906037, 42.53529767035149], [-70.96607672076922, 42.53395249572132], [-70.9575373170129, 42.52956224668104], [-70.94404897482356, 42.52267354738431], [-70.94043247660908, 42.52087683885083], [-70.93995461226974, 42.52075906830395], [-70.93965286851261, 42.52069365024623], [-70.93781072089207, 42.52019066997432], [-70.93780391879746, 42.52020579945625], [-70.92393791208868, 42.5167934375306], [-70.9225596675885, 42.51645321552371], [-70.91919285372603, 42.51548253279796], [-70.91597236519718, 42.51427028170703], [-70.91292978009363, 42.512828352101714], [-70.91009492584443, 42.51117088566314], [-70.9074955862544, 42.509314136770676], [-70.90515722889596, 42.507276312629585], [-70.90310275554056, 42.505077394249966], [-70.9013522780773, 42.502738940055515], [-70.89992292210236, 42.50028387407162], [-70.896963803137, 42.49441726344033], [-70.89241914500624, 42.48541418954724], [-70.89237575504227, 42.48532777000337], [-70.89225522457973, 42.485086448184056], [-70.89070409666759, 42.4820006877349], [-70.88958970911523, 42.479778594225166], [-70.88881723742965, 42.4782395896446], [-70.88816735939768, 42.476968632766265], [-70.88738517522492, 42.475270507026316], [-70.88709452974574, 42.474563420367105], [-70.886188205407, 42.47186754924094], [-70.88566082408495, 42.46911701020588], [-70.88551791729695, 42.46634091184478], [-70.88576094659032, 42.463568629451], [-70.8863872902119, 42.460829494149294], [-70.88739027296981, 42.45815248264439], [-70.88875923888214, 42.455565910875286], [-70.89047966575889, 42.453097134805994], [-70.89253332042733, 42.45077226150178], [-70.89608091576069, 42.44717425692469], [-70.89733410790623, 42.44590325759158], [-70.89825604652692, 42.44496821872083], [-70.90040704960407, 42.44298914995445], [-70.90279948295606, 42.44116848976581], [-70.90541217448349, 42.43952233537055], [-70.90822201024932, 42.43806523992977], [-70.90935405769496, 42.43758878461268], [-70.90976326498232, 42.43726370041066], [-70.91248900205264, 42.43548988235979], [-70.91543909476415, 42.43392544138445], [-70.91858434511266, 42.4325858532715], [-70.92189363086608, 42.43148436861816], [-70.9253342128354, 42.430631882190596], [-70.92546684861921, 42.43060957534968], [-70.92596761237238, 42.43046184801083], [-70.92616922263308, 42.43005668134994], [-70.92779421804129, 42.427594126368234], [-70.92974763242621, 42.42526624373299], [-70.9320093232984, 42.42309699570681], [-70.93455598202746, 42.421108709293705], [-70.93736137443248, 42.41932184696661], [-70.94630079839182, 42.41418772563743], [-70.94878355257282, 42.41276192620567], [-70.94850172034127, 42.412638401381464], [-70.94554745260696, 42.41102587122111], [-70.94282710521405, 42.40920133134422], [-70.94036825369693, 42.40718329076875], [-70.93819581377272, 42.40499221964585], [-70.93633178901757, 42.402650341097015], [-70.93500048621631, 42.40076697316506], [-70.93350601574714, 42.39837551411172], [-70.93233324218774, 42.395887466140124], [-70.93149329933883, 42.39332653125966], [-70.9309941470824, 42.390717102956245], [-70.93084049704487, 42.38808403363275], [-70.93103376930888, 42.385452397788136], [-70.93157208052628, 42.382847253196424], [-70.93245026348312, 42.38029340236181], [-70.93328272486764, 42.37858794256514], [-70.93322887651867, 42.3784813188955], [-70.93251897212942, 42.3770758024242], [-70.93143542129962, 42.37456297764432], [-70.9310159251622, 42.373115878638195], [-70.93056216892788, 42.37274781359651], [-70.92844250851388, 42.370652245030115], [-70.92313700933866, 42.364838873394106], [-70.92136512367958, 42.362687094002936], [-70.91987163755113, 42.36042213473099], [-70.91959616863318, 42.359881708909306], [-70.91772960263592, 42.359475595442014], [-70.91434341797982, 42.35845560874474], [-70.91111226398745, 42.357188934804654], [-70.9080687131115, 42.35568834646422], [-70.90524343988565, 42.35396897432855], [-70.9026649112238, 42.35204815372488], [-70.90035909931831, 42.349945249414354], [-70.89834922004378, 42.34768145984896], [-70.89742310671204, 42.346368168873546], [-70.89498757595639, 42.34417746840642], [-70.89282262726299, 42.342019408447115], [-70.89095794400237, 42.33971225081315], [-70.88941200334314, 42.337278898703474], [-70.88894237689345, 42.33643276302733], [-70.88772041575957, 42.33387228224899], [-70.88685134862142, 42.33123367700997], [-70.88634392368093, 42.328543643145004], [-70.88620322785427, 42.325829393434475], [-70.88643063715293, 42.32311838217263], [-70.88702380466485, 42.320438027431045], [-70.88797668618042, 42.31781543382832], [-70.8889870811587, 42.31584702284069], [-70.88922747797605, 42.313701410454236], [-70.88984925500087, 42.31115051172786], [-70.89079759478457, 42.3086555980764], [-70.89206372598947, 42.30623964554492], [-70.89363595442487, 42.303924900466356], [-70.89549977188642, 42.30173267489473], [-70.89763799070373, 42.29968315071581], [-70.90003090272428, 42.2977951942237], [-70.90251261247015, 42.29617981991426], [-70.90132085638736, 42.29577150324453], [-70.8960154065201, 42.293701731939464], [-70.89473948597863, 42.29317943912736], [-70.89122762208333, 42.29167288998148], [-70.88811817601064, 42.29017701994984], [-70.88522995326834, 42.28845399515264], [-70.8825929267356, 42.28652170772537], [-70.88023445349165, 42.2844002211081], [-70.87817899098978, 42.28211156116506], [-70.8764478437231, 42.2796794869593], [-70.87505894299395, 42.27712924359121], [-70.8740266620391, 42.274487299692666], [-70.87289345528782, 42.27091628511171], [-70.87225285309177, 42.26834593103514], [-70.87194983369761, 42.26574161825485], [-70.87198719415414, 42.26312774426051], [-70.87236454253397, 42.26052879313377], [-70.87307830317343, 42.25796910621619], [-70.87412175169837, 42.25547265422427], [-70.87548507945026, 42.25306281294232], [-70.87715548665564, 42.250762144585366], [-70.87911730341803, 42.248592186867725], [-70.88135213735829, 42.24657325173823], [-70.88382105286384, 42.24473761448562], [-70.8851096713106, 42.2427447562717], [-70.88602837832943, 42.24161773784018], [-70.88463554588876, 42.24024117002481], [-70.88274022712196, 42.23791195915887], [-70.88117014830637, 42.23545279908266], [-70.87994122537171, 42.23288867874732], [-70.87906590270096, 42.2302456506163], [-70.87855302823269, 42.227550565628356], [-70.87840776530133, 42.22483080017008], [-70.87863154204145, 42.22211397784322], [-70.88015623309975, 42.21199545127676], [-70.88089208579, 42.20711694862725], [-70.8825859651224, 42.19586146447054], [-70.88336197311993, 42.190704972657194], [-70.8850786490107, 42.17930171442442], [-70.88527961153483, 42.17797267285773], [-70.88724305825482, 42.16493511721126], [-70.88880185225247, 42.154579733331516], [-70.88936834475794, 42.15197431597383], [-70.89027381029472, 42.14942247228737], [-70.89150956538705, 42.146948561324024], [-70.89306377755823, 42.14457619544819], [-70.89492157955505, 42.14232801526291], [-70.89706521231884, 42.14022547389665], [-70.89947419529891, 42.13828863269203], [-70.90212552245485, 42.13653597022676], [-70.9049938820592, 42.134984206468566], [-70.9080518981973, 42.13364814371991], [-70.91159512761723, 42.132268547352986], [-70.9176567319786, 42.12989339841376], [-70.92387575833395, 42.1274599740496], [-70.93206587161009, 42.12425320969877], [-70.93211644595073, 42.1242334427685], [-70.93777190099502, 42.12202702129487], [-70.95397251239682, 42.115680171757916], [-70.96054838687479, 42.113105995674985], [-70.96438807082353, 42.11160353017262], [-70.967622699268, 42.11048514101222], [-70.97098908963561, 42.109608569445335], [-70.97445473601307, 42.108982278514866], [-70.97798617772773, 42.10861231466501], [-70.9815493212856, 42.10850224958061], [-70.98510976830481, 42.10865314583406], [-70.98863314633651, 42.109063546665986], [-70.99208543944026, 42.10972948999568], [-70.99543331538273, 42.110644546529706], [-70.99864444635894, 42.11179988160632], [-71.00168782019234, 42.1131843401905], [-71.00453403905539, 42.11478455421332], [-71.00715560286322, 42.11658507123632], [-71.00952717463132, 42.11856850321926], [-71.01162582524958, 42.12071569397588], [-71.01343125531261, 42.123005903722856], [-71.01492599185451, 42.12541700896217], [-71.01609555806675, 42.127925715787335], [-71.01692861432721, 42.13050778457281], [-71.01741706913509, 42.13313826389292], [-71.01755615882861, 42.13579173142393], [-71.01734449525695, 42.13844253951195], [-71.01686009426527, 42.141750910672314], [-71.02394329101831, 42.14203456227945], [-71.02758055192325, 42.142317375304096], [-71.03116115717465, 42.14287106795913], [-71.03464879187247, 42.14369002486237], [-71.03800808052316, 42.144765940136644], [-71.04120494468589, 42.146087901345474], [-71.04420694769874, 42.14764249978953], [-71.04698362303739, 42.1494139660638], [-71.04950678301303, 42.15138432952359], [-71.051750804702, 42.15353360006689], [-71.05369289021564, 42.155839970414846], [-71.05531329866432, 42.15828003686543], [-71.05659554744105, 42.160829036305785], [-71.05752658074785, 42.163461097102825], [-71.05796140567612, 42.16500196388045], [-71.05850107191574, 42.16748363067727], [-71.05863416017787, 42.16895290394741], [-71.05901409161686, 42.169033862897784], [-71.06240206422382, 42.17003891599343], [-71.06563750994346, 42.171291674813176], [-71.06868780332205, 42.17277951054631], [-71.07152217928905, 42.174487423660196], [-71.07411204288802, 42.17639819464107], [-71.07501230368614, 42.177211195574806], [-71.0751626935698, 42.17721329791854], [-71.07631843451728, 42.17686263488208], [-71.07986971588099, 42.17608767933465], [-71.08350853685465, 42.17558551581101], [-71.0871971422906, 42.17536135443207], [-71.09052632293364, 42.17528561158266], [-71.09246066286536, 42.174851346464536], [-71.09602686652526, 42.17419502484139], [-71.09966392239468, 42.173809994786225], [-71.10333464537776, 42.173700192781915], [-71.1070015074849, 42.17386674141278], [-71.11062702004804, 42.17430793793094], [-71.11417411554164, 42.17501927159917], [-71.11760652517943, 42.1759934696369], [-71.12088914849707, 42.177220571307814], [-71.12398841120604, 42.178688029405755], [-71.1268726077148, 42.180380838119234], [-71.12951222485847, 42.18228168598937], [-71.1318655703825, 42.18435818596712], [-71.13328115740022, 42.18390612401047], [-71.1367579337137, 42.183091516785666], [-71.14032692821064, 42.182540131698225], [-71.14395222456452, 42.18225751735065], [-71.14759734202916, 42.182246517643186], [-71.15122560116461, 42.18250724326322], [-71.15480049152441, 42.183037070575786], [-71.15828603767457, 42.18383066792571], [-71.16164715993042, 42.184880049091944], [-71.16485002624601, 42.186174653366194], [-71.1678623917729, 42.18770145146417], [-71.1706539227199, 42.18944507622249], [-71.18588703174743, 42.199970244945185], [-71.18852110267484, 42.200654114199615], [-71.1940369469999, 42.20208838675063], [-71.19805788720107, 42.20313302554498], [-71.20105010388951, 42.20402286992919], [-71.2039245705774, 42.20510630745824], [-71.20665868404889, 42.206374820955595], [-71.20923094078668, 42.20781843776831], [-71.21162110576041, 42.20942580791813], [-71.23017423972351, 42.22305779153463], [-71.24028173509123, 42.2293576343401], [-71.2407287634998, 42.2292647192313], [-71.2441327379181, 42.2288108233897], [-71.25187951979377, 42.22805813772566], [-71.25551995359686, 42.227841787925], [-71.25917122047119, 42.22789796999613], [-71.26170960854094, 42.22812774858894], [-71.26403113488755, 42.2279806124819], [-71.26766419250934, 42.228020895757076], [-71.27127370642218, 42.22833049234843], [-71.27482363911164, 42.228906311238624], [-71.27709477360911, 42.22936412514702], [-71.28049055707687, 42.230183595384034], [-71.28376186317081, 42.23124665194198], [-71.28687714859456, 42.23254304653067], [-71.28980636903412, 42.23406028070027], [-71.29018290559081, 42.234299319348004], [-71.2927423320749, 42.234940687919966], [-71.29584499982997, 42.235966662935596], [-71.2988053757778, 42.23720327948431], [-71.30102307411163, 42.238344182419105], [-71.3028809870626, 42.23858612129551], [-71.30630172249901, 42.239292815968945], [-71.30961344391909, 42.240244042692645], [-71.31278458344272, 42.24143073569455], [-71.31294053548629, 42.24150407282587], [-71.31443102001333, 42.241883615902914], [-71.3176552213726, 42.24297552848116], [-71.32072115083446, 42.24429542388575], [-71.32359969663753, 42.24583077384907], [-71.32626351997435, 42.24756700406768], [-71.32868731424954, 42.24948763212578], [-71.33084804533497, 42.251574423523365], [-71.33272517054722, 42.25380756434934], [-71.33430083426245, 42.25616584898107], [-71.33556003829503, 42.25862688104874], [-71.3364907853935, 42.261167285775095], [-71.33708419445391, 42.26376293169125], [-71.33733458630964, 42.26638915963617], [-71.33723953922953, 42.269021016876295], [-71.33679991353912, 42.27163349412682], [-71.33601984507001, 42.27420176322703], [-71.33490670743772, 42.276701413209025], [-71.33448454173859, 42.27751415375464]]]}}]}