{"type": "FeatureCollection", "features": [{"type": "Feature", "properties": {"name": "Randolph"}, "geometry": {"type": "Polygon", "coordinates": [[[-71.088307, 42.202358], [-71.087352, 42.203954], [-71.083611, 42.204078], [-71.082727, 42.20429], [-71.082419, 42.204611], [-71.080463, 42.20493], [-71.073886, 42.204183], [-71.06941, 42.204564], [-71.065118, 42.205448], [-71.060388, 42.206314], [-71.053056, 42.205692], [-71.04949, 42.206669], [-71.048595, 42.20179], [-71.04844968741317, 42.201], [-71.1016562546075, 42.201], [-71.096431, 42.202173], [-71.088307, 42.202358]]]}}, {"type": "Feature", "properties": {"name": "Chelsea"}, "geometry": {"type": "Polygon", "coordinates": [[[-71.050002, 42.393471], [-71.053297, 42.396178], [-71.051945, 42.397619], [-71.048145, 42.396634], [-71.046161, 42.398035], [-71.046148, 42.398044], [-71.040887, 42.401749], [-71.040568, 42.401982], [-71.039487, 42.403626], [-71.039075, 42.404263], [-71.037743, 42.406318], [-71.037097, 42.407315], [-71.035629, 42.409641], [-71.03491, 42.410876], [-71.033442, 42.41338], [-71.033181, 42.414206], [-71.031355, 42.412512], [-71.029013, 42.410319], [-71.026888, 42.40655], [-71.026468, 42.406124], [-71.023928, 42.405361], [-71.021634, 42.405194], [-71.020828, 42.403513], [-71.018126, 42.403378], [-71.017826, 42.402883], [-71.013007, 42.402864], [-71.010892, 42.401795], [-71.010861, 42.401689], [-71.009396, 42.401183], [-71.009377, 42.40085], [-71.009629, 42.400167], [-71.012434, 42.398105], [-71.013395, 42.397398], [-71.016094, 42.395897], [-71.017794, 42.390697], [-71.020512, 42.387641], [-71.022672, 42.386265], [-71.027712, 42.384041], [-71.031995, 42.384597], [-71.038357, 42.386529], [-71.039262, 42.386831], [-71.043264, 42.383594], [-71.044298, 42.383209], [-71.047284, 42.385284], [-71.048186, 42.385686], [-71.055295, 42.387097], [-71.050695, 42.391996], [-71.050002, 42.393471]]]}}, {"type": "Feature", "properties": {"name": "Malden"}, "geometry": {"type": "Polygon", "coordinates": [[[-71.087853, 42.430199], [-71.08773041040608, 42.431], [-71.0244144089431, 42.431], [-71.028227, 42.424202], [-71.040934, 42.42345], [-71.042793, 42.423341], [-71.050663, 42.422748], [-71.052833, 42.421163], [-71.05458, 42.420034], [-71.056046, 42.419165], [-71.056568, 42.418813], [-71.056813, 42.41864], [-71.059855, 42.41637], [-71.060131, 42.416142], [-71.060484, 42.415944], [-71.061542, 42.4156], [-71.062274, 42.415505], [-71.06454, 42.415284], [-71.068133, 42.415121], [-71.071124, 42.414974], [-71.072825, 42.41488], [-71.073196, 42.412996], [-71.075862, 42.413266], [-71.076801, 42.413196], [-71.07931, 42.414938], [-71.081724, 42.415157], [-71.084277, 42.416565], [-71.085924, 42.418021], [-71.086542, 42.41956], [-71.087672, 42.422371], [-71.088065, 42.423351], [-71.088644, 42.424796], [-71.08943, 42.426724], [-71.089062, 42.429115], [-71.087853, 42.430199]]]}}, {"type": "Feature", "properties": {"name": "Milton"}, "geometry": {"type": "Polygon", "coordinates": [[[-71.12742, 42.231176], [-71.125477, 42.231882], [-71.124587, 42.234012], [-71.122602, 42.234515], [-71.126377, 42.239162], [-71.12567, 42.239527], [-71.116529, 42.244274], [-71.114563, 42.245284], [-71.112057, 42.246585], [-71.109347, 42.24799], [-71.109465, 42.25241], [-71.109544, 42.255412], [-71.112392, 42.258116], [-71.113009, 42.258689], [-71.11326, 42.258926], [-71.11146, 42.260769], [-71.108405, 42.261116], [-71.105001, 42.260804], [-71.104062, 42.259862], [-71.103672, 42.259723], [-71.097899, 42.262882], [-71.097483, 42.263089], [-71.093908, 42.26714], [-71.093736, 42.267136], [-71.090258, 42.266639], [-71.089403, 42.26969], [-71.082761, 42.268634], [-71.080852, 42.269322], [-71.076492, 42.270509], [-71.075246, 42.2703], [-71.073264, 42.270317], [-71.072044, 42.270817], [-71.06814, 42.271], [-71.067815, 42.271396], [-71.065097, 42.270659], [-71.064695, 42.268607], [-71.062189, 42.267159], [-71.053836, 42.271699], [-71.053494, 42.272458], [-71.055575, 42.275052], [-71.053284, 42.277502], [-71.049802, 42.2781], [-71.04488, 42.276266], [-71.042782, 42.277102], [-71.04227, 42.272915], [-71.041635, 42.26839], [-71.04173, 42.26674], [-71.041672, 42.266427], [-71.041459, 42.266295], [-71.040249, 42.265428], [-71.036983, 42.263138], [-71.034279, 42.26124], [-71.033119, 42.260426], [-71.031872, 42.259552], [-71.031388, 42.259212], [-71.032078, 42.258349], [-71.034969, 42.256757], [-71.038855, 42.254609], [-71.051271, 42.24778], [-71.06109, 42.242384], [-71.053246, 42.229528], [-71.073388, 42.221465], [-71.080163, 42.218859], [-71.093189, 42.213936], [-71.082727, 42.20429], [-71.083611, 42.204078], [-71.087352, 42.203954], [-71.088307, 42.202358], [-71.096431, 42.202173], [-71.1016562546075, 42.201], [-71.10325535367878, 42.201], [-71.130662, 42.227823], [-71.130749, 42.227911], [-71.12742, 42.231176]]]}}, {"type": "Feature", "properties": {"name": "Watertown"}, "geometry": {"type": "Polygon", "coordinates": [[[-71.211485, 42.371312], [-71.208515, 42.37385], [-71.205355, 42.376526], [-71.202899, 42.378612], [-71.198354, 42.382477], [-71.194177, 42.386031], [-71.192801, 42.384559], [-71.190225, 42.381786], [-71.189241, 42.380727], [-71.187109, 42.380363], [-71.186461, 42.380328], [-71.185162, 42.380391], [-71.183, 42.380319], [-71.181106, 42.380184], [-71.179532, 42.380173], [-71.177654, 42.379739], [-71.175485, 42.379384], [-71.173424, 42.378916], [-71.171371, 42.378291], [-71.171229, 42.378279], [-71.169996, 42.377814], [-71.166466, 42.377177], [-71.164483, 42.376886], [-71.163363, 42.376802], [-71.160942, 42.37665], [-71.160189, 42.376501], [-71.158345, 42.376056], [-71.155414, 42.375157], [-71.154373, 42.375095], [-71.150301, 42.374483], [-71.149864, 42.374451], [-71.145937, 42.375195], [-71.145695, 42.375217], [-71.143831, 42.375278], [-71.143925, 42.374074], [-71.139992, 42.373569], [-71.140599, 42.370017], [-71.142461, 42.367017], [-71.1439, 42.365628], [-71.143667, 42.365081], [-71.144492, 42.364822], [-71.14717, 42.361754], [-71.148332, 42.361119], [-71.154475, 42.360036], [-71.159746, 42.359781], [-71.161508, 42.358972], [-71.163888, 42.358523], [-71.167625, 42.360073], [-71.168653, 42.360206], [-71.172754, 42.359331], [-71.175272, 42.359272], [-71.182126, 42.360681], [-71.182374, 42.360406], [-71.18368, 42.358829], [-71.185229, 42.359196], [-71.190231, 42.360384], [-71.193092, 42.361052], [-71.196298, 42.361802], [-71.192215, 42.365424], [-71.194502, 42.366723], [-71.195206, 42.367734], [-71.196331, 42.367178], [-71.198355, 42.367392], [-71.202029, 42.36582], [-71.204486, 42.365785], [-71.207221, 42.364137], [-71.213283, 42.364959], [-71.216341, 42.365848], [-71.217061, 42.366569], [-71.211485, 42.371312]]]}}, {"type": "Feature", "properties": {"name": "Waltham"}, "geometry": {"type": "Polygon", "coordinates": [[[-71.21591, 42.407599], [-71.211261, 42.406074], [-71.202628, 42.403702], [-71.201969, 42.402782], [-71.201799, 42.401374], [-71.200621, 42.399458], [-71.199429, 42.39732], [-71.196627, 42.395229], [-71.19633, 42.394031], [-71.19794, 42.392784], [-71.196742, 42.390544], [-71.194954, 42.388273], [-71.19446, 42.386317], [-71.194177, 42.386031], [-71.198354, 42.382477], [-71.202899, 42.378612], [-71.205355, 42.376526], [-71.208515, 42.37385], [-71.211485, 42.371312], [-71.217061, 42.366569], [-71.21719, 42.366534], [-71.226229, 42.363872], [-71.226639, 42.363752], [-71.227, 42.36364507296403], [-71.227, 42.41123805910026], [-71.21591, 42.407599]]]}}, {"type": "Feature", "properties": {"name": "Arlington"}, "geometry": {"type": "Polygon", "coordinates": [[[-71.195676, 42.42206], [-71.192829, 42.424782], [-71.19264, 42.424963], [-71.191548, 42.426058], [-71.189405, 42.428307], [-71.18689142491948, 42.431], [-71.14846666931366, 42.431], [-71.146784, 42.425262], [-71.145997, 42.423735], [-71.142757, 42.42193], [-71.14292, 42.42058], [-71.142855, 42.419537], [-71.141544, 42.418384], [-71.14109, 42.417674], [-71.140084, 42.416432], [-71.138361, 42.41549], [-71.133106, 42.415392], [-71.132435, 42.415216], [-71.132517, 42.414573], [-71.132887, 42.411973], [-71.132396, 42.40897], [-71.133869, 42.407042], [-71.134528, 42.405813], [-71.134514, 42.404167], [-71.134921, 42.402562], [-71.136253, 42.401071], [-71.140372, 42.399831], [-71.141436, 42.398959], [-71.142803, 42.397878], [-71.143557, 42.397428], [-71.143593, 42.397412], [-71.152245, 42.400816], [-71.155539, 42.402095], [-71.156389, 42.402527], [-71.157473, 42.402434], [-71.164054, 42.405463], [-71.163925, 42.405715], [-71.174424, 42.40937], [-71.177705, 42.410212], [-71.181634, 42.410882], [-71.183712, 42.411374], [-71.184547, 42.411646], [-71.194291, 42.415321], [-71.194492, 42.41499], [-71.194521, 42.414937], [-71.195297, 42.415172], [-71.194257, 42.41339], [-71.202612, 42.414826], [-71.199907, 42.417703], [-71.195676, 42.42206]]]}}, {"type": "Feature", "properties": {"name": "Medford"}, "geometry": {"type": "Polygon", "coordinates": [[[-71.087853, 42.430199], [-71.089062, 42.429115], [-71.08943, 42.426724], [-71.088644, 42.424796], [-71.088065, 42.423351], [-71.087672, 42.422371], [-71.086542, 42.41956], [-71.085924, 42.418021], [-71.084277, 42.416565], [-71.081724, 42.415157], [-71.07931, 42.414938], [-71.076801, 42.413196], [-71.075862, 42.413266], [-71.073196, 42.412996], [-71.07199, 42.411883], [-71.073552, 42.409393], [-71.071297, 42.406922], [-71.072807, 42.40381], [-71.075988, 42.399706], [-71.075996, 42.396396], [-71.077152, 42.396778], [-71.083423, 42.400013], [-71.085687, 42.400651], [-71.093007, 42.39923], [-71.093883, 42.399632], [-71.095526, 42.400114], [-71.096301, 42.400341], [-71.098349, 42.39856], [-71.099608, 42.397121], [-71.100394, 42.396224], [-71.101763, 42.396681], [-71.104464, 42.397584], [-71.11075, 42.399703], [-71.113868, 42.400985], [-71.114916, 42.402167], [-71.115541, 42.405145], [-71.117419, 42.405829], [-71.121668, 42.407088], [-71.123882, 42.408229], [-71.123294, 42.409169], [-71.12336, 42.409191], [-71.125687, 42.409984], [-71.12615, 42.409269], [-71.127868, 42.410581], [-71.12704, 42.412328], [-71.129922, 42.413327], [-71.126992, 42.41663], [-71.126121, 42.417647], [-71.126749, 42.418152], [-71.131629, 42.416622], [-71.131584, 42.41579], [-71.132435, 42.415216], [-71.133106, 42.415392], [-71.138361, 42.41549], [-71.140084, 42.416432], [-71.14109, 42.417674], [-71.141544, 42.418384], [-71.142855, 42.419537], [-71.14292, 42.42058], [-71.142757, 42.42193], [-71.145997, 42.423735], [-71.146784, 42.425262], [-71.14846666931366, 42.431], [-71.08773041040608, 42.431], [-71.087853, 42.430199]]]}}, {"type": "Feature", "properties": {"name": "Nahant"}, "geometry": {"type": "Polygon", "coordinates": [[[-70.928628, 42.428834], [-70.925085, 42.430299], [-70.913192, 42.427697], [-70.908392, 42.425197], [-70.907647, 42.421834], [-70.902872, 42.420053], [-70.905692, 42.416197], [-70.9102133567764, 42.4164765179867], [-70.910852, 42.416516], [-70.9183580702162, 42.422360023618], [-70.919934, 42.423587], [-70.928046, 42.420663], [-70.927971, 42.41713], [-70.936393, 42.418097], [-70.937432, 42.4258], [-70.9367765313368, 42.4277921242722], [-70.9363382524902, 42.4291241573309], [-70.9361602756, 42.4296650711879], [-70.9357210439637, 42.431], [-70.93087544272984, 42.431], [-70.928628, 42.428834]]]}}, {"type": "Feature", "properties": {"name": "Hingham"}, "geometry": {"type": "MultiPolygon", "coordinates": [[[[-70.91932, 42.254703], [-70.917081, 42.2556], [-70.918191, 42.2601], [-70.91739, 42.263899], [-70.90899, 42.264399], [-70.9082859092802, 42.2647153306132], [-70.90752, 42.262306], [-70.9068501622526, 42.2623279045595], [-70.903881, 42.262425], [-70.899817, 42.26115], [-70.895873, 42.262657], [-70.893784, 42.262316], [-70.89386, 42.261085], [-70.895879, 42.259846], [-70.896751, 42.257557], [-70.898367, 42.257232], [-70.897893, 42.256001], [-70.892857, 42.253412], [-70.8911152593116, 42.250804], [-70.890024, 42.24917], [-70.8872171010328, 42.2474039216055], [-70.886, 42.246638131364016], [-70.886, 42.201], [-70.91836401163513, 42.201], [-70.916997, 42.210118], [-70.916264, 42.214996], [-70.914745, 42.225115], [-70.916334, 42.225718], [-70.92049, 42.2258], [-70.92209, 42.2253], [-70.92349, 42.2259], [-70.923751, 42.228055], [-70.92239, 42.2293], [-70.92579, 42.2368], [-70.929591, 42.2427], [-70.93129, 42.244299], [-70.93111, 42.246393], [-70.931019, 42.247041], [-70.931191, 42.2486], [-70.933491, 42.25], [-70.932435, 42.252644], [-70.91932, 42.254703]]], [[[-70.8873341640442, 42.2730873747445], [-70.886, 42.27361670439384], [-70.886, 42.27162247421279], [-70.8873341640442, 42.2730873747445]]]]}}, {"type": "Feature", "properties": {"name": "Hull"}, "geometry": {"type": "MultiPolygon", "coordinates": [[[[-70.88861, 42.339655], [-70.886251, 42.339946], [-70.886, 42.33984076390773], [-70.886, 42.3384488951049], [-70.887529, 42.338202], [-70.889544, 42.338311], [-70.891018, 42.338057], [-70.891804, 42.338129], [-70.891755, 42.338856], [-70.88861, 42.339655]]], [[[-70.89111, 42.328445], [-70.888954, 42.328902], [-70.888775, 42.328461], [-70.889151, 42.32774], [-70.89077, 42.327607], [-70.891952, 42.327231], [-70.892492, 42.32803], [-70.892296, 42.328394], [-70.89111, 42.328445]]], [[[-70.89721, 42.343324], [-70.8956, 42.343892], [-70.894605, 42.342379], [-70.894605, 42.340309], [-70.895156, 42.338879], [-70.896714, 42.338475], [-70.897354, 42.339492], [-70.898407, 42.340266], [-70.89721, 42.343324]]], [[[-70.897259, 42.332644], [-70.897063, 42.333952], [-70.896031, 42.334715], [-70.894601, 42.335096], [-70.894065, 42.33498], [-70.893967, 42.334497], [-70.895013, 42.333807], [-70.895692, 42.331945], [-70.89608, 42.330355], [-70.897554, 42.330246], [-70.897853, 42.330678], [-70.898586, 42.330501], [-70.898439, 42.331191], [-70.897259, 42.332644]]], [[[-70.91749, 42.305686], [-70.907556, 42.307889], [-70.895862, 42.305934], [-70.889456, 42.310484], [-70.886, 42.31043758677686], [-70.886, 42.2915799287405], [-70.886842, 42.292553], [-70.887317, 42.297652], [-70.8915300137207, 42.2984000190972], [-70.893259, 42.298707], [-70.903954, 42.301695], [-70.910372, 42.299058], [-70.915588, 42.302463], [-70.923444, 42.302398], [-70.92392, 42.305035], [-70.91749, 42.305686]]], [[[-70.8873341640442, 42.2730873747445], [-70.8901577364405, 42.2761876327095], [-70.890169, 42.2762], [-70.902059, 42.28041], [-70.903238, 42.281335], [-70.90152, 42.282694], [-70.893972, 42.281476], [-70.886, 42.27830009967637], [-70.886, 42.27361670439384], [-70.8873341640442, 42.2730873747445]]], [[[-70.94864, 42.291637], [-70.941654, 42.292214], [-70.9357, 42.296523], [-70.935272, 42.302101], [-70.929357, 42.303321], [-70.92638, 42.301406], [-70.926638, 42.299204], [-70.930004, 42.296811], [-70.935311, 42.291927], [-70.937332, 42.284916], [-70.942561, 42.287522], [-70.94902, 42.285946], [-70.95108, 42.289726], [-70.94864, 42.291637]]]]}}, {"type": "Feature", "properties": {"name": "Revere"}, "geometry": {"type": "Polygon", "coordinates": [[[-71.031729, 42.417392], [-71.031086, 42.418782], [-71.029319, 42.421877], [-71.028227, 42.424202], [-71.0244144089431, 42.431], [-70.97608599578284, 42.431], [-70.9766428828741, 42.4304353742319], [-70.982994, 42.423996], [-70.9837042442038, 42.4228928547472], [-70.9868150009499, 42.4180612538438], [-70.987694, 42.416696], [-70.9905596943417, 42.4072148092754], [-70.990595, 42.407098], [-70.989195, 42.402598], [-70.9877229583999, 42.4023993261034], [-70.985068, 42.402041], [-70.983426, 42.396246], [-70.9830109750584, 42.3955969169758], [-70.9829573662762, 42.3955130749052], [-70.9805087923239, 42.3916835995493], [-70.982988, 42.390692], [-70.983305, 42.389388], [-70.986053, 42.388116], [-70.987289, 42.388734], [-70.987974, 42.392817], [-70.989771, 42.39324], [-70.994454, 42.393316], [-70.995047, 42.393566], [-70.996475, 42.396308], [-71.000683, 42.396817], [-71.001407, 42.39674], [-71.005861, 42.393892], [-71.010001, 42.39549], [-71.01193, 42.395752], [-71.011272, 42.396589], [-71.013395, 42.397398], [-71.012434, 42.398105], [-71.009629, 42.400167], [-71.009377, 42.40085], [-71.009396, 42.401183], [-71.010861, 42.401689], [-71.010892, 42.401795], [-71.013007, 42.402864], [-71.017826, 42.402883], [-71.018126, 42.403378], [-71.020828, 42.403513], [-71.021634, 42.405194], [-71.023928, 42.405361], [-71.026468, 42.406124], [-71.026888, 42.40655], [-71.029013, 42.410319], [-71.031355, 42.412512], [-71.033181, 42.414206], [-71.032566, 42.415533], [-71.031729, 42.417392]]]}}, {"type": "Feature", "properties": {"name": "Winthrop"}, "geometry": {"type": "Polygon", "coordinates": [[[-71.000206, 42.377754], [-70.997994, 42.378197], [-70.994648, 42.38115], [-70.994634, 42.382711], [-70.994239, 42.384647], [-70.988281, 42.387107], [-70.986621, 42.387138], [-70.986053, 42.388116], [-70.983305, 42.389388], [-70.982988, 42.390692], [-70.9805087923239, 42.3916835995493], [-70.979791, 42.390561], [-70.9763005855547, 42.3896034294788], [-70.975796, 42.389465], [-70.9728366500024, 42.3897312633081], [-70.968605, 42.390112], [-70.967273, 42.388229], [-70.9717729863072, 42.3854920808472], [-70.972513, 42.385042], [-70.972706, 42.381759], [-70.9725474871818, 42.3811464941589], [-70.971573, 42.377381], [-70.970474068748, 42.3752075779403], [-70.9673378283052, 42.3690048476509], [-70.966627, 42.367599], [-70.969214, 42.364254], [-70.9687847373272, 42.3618301210265], [-70.968034, 42.357591], [-70.9668748754428, 42.3570563182718], [-70.967048, 42.356954], [-70.967257, 42.357069], [-70.968935, 42.355925], [-70.9700244514225, 42.3552840314789], [-70.972406, 42.35722], [-70.97454, 42.35925], [-70.975377, 42.362286], [-70.9740053452562, 42.3646975185054], [-70.9712837210795, 42.3694824303768], [-70.97066, 42.370579], [-70.972828, 42.371928], [-70.9729669644569, 42.3718969736873], [-70.9810034470648, 42.3701026844985], [-70.988128, 42.368512], [-70.9893182344247, 42.3690586523421], [-70.9945899868606, 42.3714798693362], [-70.997227, 42.372691], [-70.9978531307301, 42.3726342679425], [-71.00024, 42.372418], [-71.002822, 42.365945], [-71.0016199959101, 42.3646770423249], [-71.010363, 42.365031], [-71.006123, 42.376052], [-71.000206, 42.377754]]]}}, {"type": "Feature", "properties": {"name": "Braintree"}, "geometry": {"type": "Polygon", "coordinates": [[[-71.048025, 42.206295], [-71.044942, 42.206485], [-71.044883, 42.206484], [-71.044925, 42.21131], [-71.044938, 42.215384], [-71.034168, 42.226661], [-71.033, 42.227884], [-71.020195, 42.228338], [-71.018231, 42.228408], [-71.01079, 42.228668], [-71.008337, 42.229669], [-71.007212, 42.230133], [-71.006853, 42.230281], [-71.005482, 42.230848], [-71.002103, 42.232219], [-70.996191, 42.233204], [-70.981151, 42.235742], [-70.979909, 42.23621], [-70.9775, 42.238371], [-70.972758, 42.237146], [-70.967991, 42.237999], [-70.960491, 42.235099], [-70.960374, 42.233613], [-70.960384, 42.228715], [-70.960891, 42.226899], [-70.963728, 42.224694], [-70.967022, 42.223353], [-70.96809, 42.221519], [-70.967684, 42.220662], [-70.969071, 42.217412], [-70.969457, 42.214923], [-70.97155385986576, 42.201], [-71.04844968741317, 42.201], [-71.048595, 42.20179], [-71.04949, 42.206669], [-71.048025, 42.206295]]]}}, {"type": "Feature", "properties": {"name": "Needham"}, "geometry": {"type": "MultiPolygon", "coordinates": [[[[-71.226286, 42.314117], [-71.227, 42.31254747826087], [-71.227, 42.314845768496426], [-71.226286, 42.314117]]], [[[-71.226311, 42.310284], [-71.226688, 42.30825], [-71.22411, 42.3073], [-71.220508, 42.306407], [-71.21819, 42.306796], [-71.213275, 42.306161], [-71.211289, 42.303106], [-71.211253, 42.302266], [-71.211565, 42.29973], [-71.207881, 42.297157], [-71.20635, 42.294267], [-71.20524, 42.289568], [-71.202975, 42.288574], [-71.20159, 42.288633], [-71.196732, 42.286078], [-71.195793, 42.286196], [-71.195268, 42.287965], [-71.19322, 42.288014], [-71.190886, 42.285823], [-71.191247, 42.282992], [-71.190753, 42.28184], [-71.188212, 42.280438], [-71.196694, 42.269224], [-71.197043, 42.269005], [-71.200056, 42.267646], [-71.20328, 42.267247], [-71.208394, 42.267844], [-71.211174, 42.267298], [-71.218106, 42.268655], [-71.218125, 42.267703], [-71.219575, 42.263823], [-71.223758, 42.2629], [-71.225656, 42.264133], [-71.227, 42.26413873215809], [-71.227, 42.312208103038316], [-71.226311, 42.310284]]]]}}, {"type": "Feature", "properties": {"name": "Norwood"}, "geometry": {"type": "Polygon", "coordinates": [[[-71.218976, 42.201069], [-71.218025, 42.201975], [-71.210702, 42.208836], [-71.19816, 42.21348], [-71.19645, 42.213891], [-71.1906, 42.21365], [-71.190045, 42.213608], [-71.186527, 42.212974], [-71.182802, 42.212624], [-71.178675, 42.212301], [-71.16277, 42.20177], [-71.16216, 42.20124], [-71.16174671480145, 42.201], [-71.21904911378596, 42.201], [-71.218976, 42.201069]]]}}, {"type": "Feature", "properties": {"name": "Quincy"}, "geometry": {"type": "Polygon", "coordinates": [[[-71.080163, 42.218859], [-71.073388, 42.221465], [-71.053246, 42.229528], [-71.06109, 42.242384], [-71.051271, 42.24778], [-71.038855, 42.254609], [-71.034969, 42.256757], [-71.032078, 42.258349], [-71.031388, 42.259212], [-71.031872, 42.259552], [-71.033119, 42.260426], [-71.034279, 42.26124], [-71.036983, 42.263138], [-71.040249, 42.265428], [-71.041459, 42.266295], [-71.041672, 42.266427], [-71.04173, 42.26674], [-71.041635, 42.26839], [-71.04227, 42.272915], [-71.042782, 42.277102], [-71.041594, 42.278098], [-71.040494, 42.281898], [-71.039293, 42.283799], [-71.03908, 42.283966], [-71.0381271228924, 42.284715047516], [-71.037264, 42.284144], [-71.0371133770516, 42.2842168416909], [-71.032812, 42.286297], [-71.032108, 42.288565], [-71.033373, 42.290036], [-71.03905, 42.300138], [-71.036797, 42.301392], [-71.030394, 42.300496], [-71.025837, 42.299698], [-71.023297, 42.297948], [-71.023367, 42.294474], [-71.021523, 42.294346], [-71.0203281086215, 42.2953691832527], [-71.0196380717428, 42.2959600605414], [-71.0149414532442, 42.2999817661782], [-71.0146541847794, 42.3002277536274], [-71.0145026031843, 42.3003575526638], [-71.014251, 42.300573], [-71.013903, 42.303429], [-71.010807, 42.30451], [-71.0106743356722, 42.3043345407277], [-71.009102, 42.302255], [-71.001309, 42.303455], [-70.994908, 42.305385], [-70.99047, 42.308023], [-70.987428, 42.30608], [-70.990246, 42.304073], [-71.005206, 42.300599], [-71.00611, 42.297125], [-71.004616, 42.294481], [-71.0112040235165, 42.2910112375837], [-71.012769, 42.290187], [-71.02021, 42.290495], [-71.02231, 42.288188], [-71.0209154184429, 42.2863012929356], [-71.0201452479714, 42.2852593416333], [-71.0172529428601, 42.2813463883477], [-71.016138, 42.279838], [-71.0131516215695, 42.2785913963387], [-71.0087940234114, 42.2767724045583], [-70.998341, 42.272409], [-70.996002, 42.266837], [-70.9957971122527, 42.2667894272202], [-70.9866741464017, 42.2646711705092], [-70.985278, 42.264347], [-70.980714, 42.265318], [-70.973357, 42.263009], [-70.9704791043018, 42.2650346010444], [-70.9684986091648, 42.2664285685258], [-70.9680088507035, 42.2667732840244], [-70.964885, 42.268972], [-70.9588122006478, 42.2702487874936], [-70.9572400741126, 42.2705793222902], [-70.956219, 42.270794], [-70.954105, 42.274793], [-70.955724, 42.279419], [-70.954894, 42.280466], [-70.953186, 42.279854], [-70.949284, 42.274205], [-70.9501108011514, 42.2693045176393], [-70.950449, 42.2673], [-70.952173, 42.264062], [-70.951185, 42.261266], [-70.951803, 42.260558], [-70.9540913251401, 42.261175345192], [-70.959361, 42.262597], [-70.962111, 42.260737], [-70.963803, 42.260922], [-70.9642414836247, 42.2605897664049], [-70.965429, 42.25969], [-70.965811, 42.257765], [-70.960204, 42.255771], [-70.95839, 42.256687], [-70.95727, 42.254988], [-70.960186, 42.251877], [-70.9612166151308, 42.2502385265767], [-70.9622118351046, 42.2486563244252], [-70.962402, 42.248354], [-70.9622709370614, 42.2474289339498], [-70.9621303625804, 42.2464367337036], [-70.96541, 42.246791], [-70.967124, 42.244256], [-70.968591, 42.2404], [-70.967991, 42.237999], [-70.972758, 42.237146], [-70.9775, 42.238371], [-70.979909, 42.23621], [-70.981151, 42.235742], [-70.996191, 42.233204], [-71.002103, 42.232219], [-71.005482, 42.230848], [-71.006853, 42.230281], [-71.007212, 42.230133], [-71.008337, 42.229669], [-71.01079, 42.228668], [-71.018231, 42.228408], [-71.020195, 42.228338], [-71.033, 42.227884], [-71.034168, 42.226661], [-71.044938, 42.215384], [-71.044925, 42.21131], [-71.044883, 42.206484], [-71.044942, 42.206485], [-71.048025, 42.206295], [-71.04949, 42.206669], [-71.053056, 42.205692], [-71.060388, 42.206314], [-71.065118, 42.205448], [-71.06941, 42.204564], [-71.073886, 42.204183], [-71.080463, 42.20493], [-71.082419, 42.204611], [-71.082727, 42.20429], [-71.093189, 42.213936], [-71.080163, 42.218859]]]}}, {"type": "Feature", "properties": {"name": "Westwood"}, "geometry": {"type": "Polygon", "coordinates": [[[-71.205679, 42.243041], [-71.186071, 42.22863], [-71.182045, 42.227584], [-71.176542, 42.226153], [-71.170715, 42.22464], [-71.166722, 42.223601], [-71.145922, 42.209227], [-71.14842, 42.206386], [-71.145667, 42.206072], [-71.146174, 42.204471], [-71.14964499999999, 42.201], [-71.16174671480145, 42.201], [-71.16216, 42.20124], [-71.16277, 42.20177], [-71.178675, 42.212301], [-71.182802, 42.212624], [-71.186527, 42.212974], [-71.190045, 42.213608], [-71.1906, 42.21365], [-71.19645, 42.213891], [-71.19816, 42.21348], [-71.210702, 42.208836], [-71.218025, 42.201975], [-71.218976, 42.201069], [-71.21904911378596, 42.201], [-71.227, 42.201], [-71.227, 42.25632998183424], [-71.205679, 42.243041]]]}}, {"type": "Feature", "properties": {"name": "Weymouth"}, "geometry": {"type": "Polygon", "coordinates": [[[-70.969457, 42.214923], [-70.969071, 42.217412], [-70.967684, 42.220662], [-70.96809, 42.221519], [-70.967022, 42.223353], [-70.963728, 42.224694], [-70.960891, 42.226899], [-70.960384, 42.228715], [-70.960374, 42.233613], [-70.960491, 42.235099], [-70.967991, 42.237999], [-70.968591, 42.2404], [-70.967124, 42.244256], [-70.96541, 42.246791], [-70.9621303625804, 42.2464367337036], [-70.962127, 42.246413], [-70.9620512957532, 42.2463817921323], [-70.959495, 42.245328], [-70.957457, 42.247339], [-70.955368, 42.247388], [-70.9548398158237, 42.2475921971459], [-70.9492236757077, 42.2497634090717], [-70.9445534220601, 42.2515689392413], [-70.943172, 42.252103], [-70.936164, 42.256818], [-70.927227, 42.257381], [-70.92483, 42.263339], [-70.925897, 42.26917], [-70.918236, 42.271861], [-70.912932, 42.269792], [-70.909421, 42.268286], [-70.9082859092802, 42.2647153306132], [-70.90899, 42.264399], [-70.91739, 42.263899], [-70.918191, 42.2601], [-70.917081, 42.2556], [-70.91932, 42.254703], [-70.932435, 42.252644], [-70.933491, 42.25], [-70.931191, 42.2486], [-70.931019, 42.247041], [-70.93111, 42.246393], [-70.93129, 42.244299], [-70.929591, 42.2427], [-70.92579, 42.2368], [-70.92239, 42.2293], [-70.923751, 42.228055], [-70.92349, 42.2259], [-70.92209, 42.2253], [-70.92049, 42.2258], [-70.916334, 42.225718], [-70.914745, 42.225115], [-70.916264, 42.214996], [-70.916997, 42.210118], [-70.91836401163513, 42.201], [-70.97155385986576, 42.201], [-70.969457, 42.214923]]]}}, {"type": "Feature", "properties": {"name": "Lexington"}, "geometry": {"type": "Polygon", "coordinates": [[[-71.189405, 42.428307], [-71.191548, 42.426058], [-71.19264, 42.424963], [-71.192829, 42.424782], [-71.195676, 42.42206], [-71.199907, 42.417703], [-71.202612, 42.414826], [-71.203178, 42.414279], [-71.207603, 42.40978], [-71.211261, 42.406074], [-71.21591, 42.407599], [-71.227, 42.41123805910026], [-71.227, 42.431], [-71.18689142491948, 42.431], [-71.189405, 42.428307]]]}}, {"type": "Feature", "properties": {"name": "Belmont"}, "geometry": {"type": "Polygon", "coordinates": [[[-71.203178, 42.414279], [-71.202612, 42.414826], [-71.194257, 42.41339], [-71.195297, 42.415172], [-71.194521, 42.414937], [-71.194492, 42.41499], [-71.194291, 42.415321], [-71.184547, 42.411646], [-71.183712, 42.411374], [-71.181634, 42.410882], [-71.177705, 42.410212], [-71.174424, 42.40937], [-71.163925, 42.405715], [-71.164054, 42.405463], [-71.157473, 42.402434], [-71.156389, 42.402527], [-71.155539, 42.402095], [-71.152245, 42.400816], [-71.15494, 42.397564], [-71.156362, 42.395852], [-71.156385, 42.395823], [-71.158387, 42.394593], [-71.157317, 42.390953], [-71.158229, 42.386909], [-71.160398, 42.386542], [-71.160332, 42.386444], [-71.157971, 42.382805], [-71.157792, 42.382211], [-71.155623, 42.381481], [-71.156231, 42.380636], [-71.154706, 42.376088], [-71.154373, 42.375095], [-71.155414, 42.375157], [-71.158345, 42.376056], [-71.160189, 42.376501], [-71.160942, 42.37665], [-71.163363, 42.376802], [-71.164483, 42.376886], [-71.166466, 42.377177], [-71.169996, 42.377814], [-71.171229, 42.378279], [-71.171371, 42.378291], [-71.173424, 42.378916], [-71.175485, 42.379384], [-71.177654, 42.379739], [-71.179532, 42.380173], [-71.181106, 42.380184], [-71.183, 42.380319], [-71.185162, 42.380391], [-71.186461, 42.380328], [-71.187109, 42.380363], [-71.189241, 42.380727], [-71.190225, 42.381786], [-71.192801, 42.384559], [-71.194177, 42.386031], [-71.19446, 42.386317], [-71.194954, 42.388273], [-71.196742, 42.390544], [-71.19794, 42.392784], [-71.19633, 42.394031], [-71.196627, 42.395229], [-71.199429, 42.39732], [-71.200621, 42.399458], [-71.201799, 42.401374], [-71.201969, 42.402782], [-71.202628, 42.403702], [-71.211261, 42.406074], [-71.207603, 42.40978], [-71.203178, 42.414279]]]}}, {"type": "Feature", "properties": {"name": "Everett"}, "geometry": {"type": "Polygon", "coordinates": [[[-71.072807, 42.40381], [-71.071297, 42.406922], [-71.073552, 42.409393], [-71.07199, 42.411883], [-71.073196, 42.412996], [-71.072825, 42.41488], [-71.071124, 42.414974], [-71.068133, 42.415121], [-71.06454, 42.415284], [-71.062274, 42.415505], [-71.061542, 42.4156], [-71.060484, 42.415944], [-71.060131, 42.416142], [-71.059855, 42.41637], [-71.056813, 42.41864], [-71.056568, 42.418813], [-71.056046, 42.419165], [-71.05458, 42.420034], [-71.052833, 42.421163], [-71.050663, 42.422748], [-71.042793, 42.423341], [-71.040934, 42.42345], [-71.028227, 42.424202], [-71.029319, 42.421877], [-71.031086, 42.418782], [-71.031729, 42.417392], [-71.032566, 42.415533], [-71.033181, 42.414206], [-71.033442, 42.41338], [-71.03491, 42.410876], [-71.035629, 42.409641], [-71.037097, 42.407315], [-71.037743, 42.406318], [-71.039075, 42.404263], [-71.039487, 42.403626], [-71.040568, 42.401982], [-71.040887, 42.401749], [-71.046148, 42.398044], [-71.046161, 42.398035], [-71.048145, 42.396634], [-71.051945, 42.397619], [-71.053297, 42.396178], [-71.050002, 42.393471], [-71.050695, 42.391996], [-71.055295, 42.387097], [-71.055524, 42.387119], [-71.065695, 42.386596], [-71.070896, 42.388996], [-71.070696, 42.389596], [-71.066997, 42.394006], [-71.066944, 42.394755], [-71.069322, 42.394022], [-71.072696, 42.390796], [-71.073496, 42.391796], [-71.075586, 42.395247], [-71.075996, 42.396396], [-71.075988, 42.399706], [-71.072807, 42.40381]]]}}, {"type": "Feature", "properties": {"name": "Dedham"}, "geometry": {"type": "Polygon", "coordinates": [[[-71.225656, 42.264133], [-71.223758, 42.2629], [-71.219575, 42.263823], [-71.218125, 42.267703], [-71.218106, 42.268655], [-71.211174, 42.267298], [-71.208394, 42.267844], [-71.20328, 42.267247], [-71.200056, 42.267646], [-71.197043, 42.269005], [-71.196694, 42.269224], [-71.188212, 42.280438], [-71.18599, 42.279771], [-71.185307, 42.279497], [-71.183159, 42.275913], [-71.177461, 42.276868], [-71.174972, 42.276004], [-71.174565, 42.275576], [-71.174418, 42.275042], [-71.174847, 42.273729], [-71.173583, 42.271415], [-71.173342, 42.270849], [-71.172953, 42.270298], [-71.174609, 42.268373], [-71.174154, 42.267021], [-71.171541, 42.266142], [-71.168604, 42.26316], [-71.167393, 42.262197], [-71.163393, 42.259023], [-71.161574, 42.257546], [-71.158584, 42.255155], [-71.155958, 42.256485], [-71.152118, 42.258247], [-71.150386, 42.25746], [-71.146642, 42.255755], [-71.146306, 42.253933], [-71.146127, 42.252964], [-71.144069, 42.242819], [-71.143498, 42.240065], [-71.142681, 42.235998], [-71.139241, 42.23366], [-71.136665, 42.23191], [-71.130771, 42.227926], [-71.132605, 42.227107], [-71.134308, 42.227396], [-71.137098, 42.226728], [-71.14008, 42.223931], [-71.14074, 42.221451], [-71.142278, 42.219168], [-71.141386, 42.218671], [-71.142819, 42.215672], [-71.142413, 42.214525], [-71.143488, 42.212972], [-71.142595, 42.211391], [-71.144476, 42.210243], [-71.145922, 42.209227], [-71.166722, 42.223601], [-71.170715, 42.22464], [-71.176542, 42.226153], [-71.182045, 42.227584], [-71.186071, 42.22863], [-71.205679, 42.243041], [-71.227, 42.25632998183424], [-71.227, 42.26413873215809], [-71.225656, 42.264133]]]}}, {"type": "Feature", "properties": {"name": "Brookline"}, "geometry": {"type": "Polygon", "coordinates": [[[-71.17172, 42.31949], [-71.170485, 42.321538], [-71.169223, 42.321994], [-71.167348, 42.322641], [-71.164599, 42.324632], [-71.157036, 42.33039], [-71.156262, 42.330847], [-71.149853, 42.334635], [-71.150104, 42.335282], [-71.148295, 42.335807], [-71.148482, 42.336253], [-71.147266, 42.337201], [-71.146156, 42.337442], [-71.146215, 42.338632], [-71.144779, 42.339657], [-71.144212, 42.340022], [-71.141754, 42.340396], [-71.141298, 42.34107], [-71.139977, 42.34214], [-71.138809, 42.343087], [-71.137824, 42.343876], [-71.135985, 42.345366], [-71.135155, 42.346023], [-71.134254, 42.346577], [-71.133381, 42.347122], [-71.129746, 42.34885], [-71.12858, 42.349696], [-71.126215, 42.350412], [-71.124067, 42.351552], [-71.123518, 42.351486], [-71.122855, 42.351861], [-71.121311, 42.351675], [-71.120286, 42.351557], [-71.115808, 42.351017], [-71.110936, 42.350446], [-71.10657, 42.349912], [-71.106702, 42.349433], [-71.106854, 42.348759], [-71.106894, 42.348588], [-71.107213, 42.347049], [-71.10674, 42.34604], [-71.105516, 42.343812], [-71.108225, 42.342272], [-71.110597, 42.340405], [-71.111551, 42.337299], [-71.110751, 42.336168], [-71.110808, 42.335586], [-71.111413, 42.334525], [-71.113088, 42.332604], [-71.114547, 42.328372], [-71.115563, 42.32678], [-71.115929, 42.325855], [-71.116537, 42.323939], [-71.119539, 42.322745], [-71.120112, 42.322835], [-71.121528, 42.323882], [-71.123711, 42.322716], [-71.130642, 42.31453], [-71.131863, 42.313178], [-71.134359, 42.309252], [-71.136502, 42.306204], [-71.140135, 42.302147], [-71.146883, 42.29728], [-71.1503, 42.29553], [-71.152113, 42.294588], [-71.153691, 42.295746], [-71.164702, 42.30383], [-71.16642, 42.304747], [-71.1698, 42.307607], [-71.178935, 42.314316], [-71.173715, 42.318051], [-71.17172, 42.31949]]]}}, {"type": "Feature", "properties": {"name": "Newton"}, "geometry": {"type": "Polygon", "coordinates": [[[-71.226639, 42.363752], [-71.226229, 42.363872], [-71.21719, 42.366534], [-71.217061, 42.366569], [-71.216341, 42.365848], [-71.213283, 42.364959], [-71.207221, 42.364137], [-71.204486, 42.365785], [-71.202029, 42.36582], [-71.198355, 42.367392], [-71.196331, 42.367178], [-71.195206, 42.367734], [-71.194502, 42.366723], [-71.192215, 42.365424], [-71.196298, 42.361802], [-71.193092, 42.361052], [-71.190231, 42.360384], [-71.185229, 42.359196], [-71.18368, 42.358829], [-71.182374, 42.360406], [-71.182126, 42.360681], [-71.175272, 42.359272], [-71.172754, 42.359331], [-71.168653, 42.360206], [-71.167625, 42.360073], [-71.169474, 42.358047], [-71.171387, 42.356089], [-71.173935, 42.353397], [-71.174798, 42.350265], [-71.174265, 42.349584], [-71.166699, 42.340009], [-71.16674, 42.339854], [-71.168936, 42.338449], [-71.168886, 42.335826], [-71.167565, 42.333441], [-71.162732, 42.333961], [-71.160917, 42.333639], [-71.157036, 42.33039], [-71.164599, 42.324632], [-71.167348, 42.322641], [-71.169223, 42.321994], [-71.170485, 42.321538], [-71.17172, 42.31949], [-71.173715, 42.318051], [-71.178935, 42.314316], [-71.1698, 42.307607], [-71.16642, 42.304747], [-71.164702, 42.30383], [-71.169808, 42.300443], [-71.178636, 42.294595], [-71.190904, 42.283248], [-71.191247, 42.282992], [-71.190886, 42.285823], [-71.19322, 42.288014], [-71.195268, 42.287965], [-71.195793, 42.286196], [-71.196732, 42.286078], [-71.20159, 42.288633], [-71.202975, 42.288574], [-71.20524, 42.289568], [-71.20635, 42.294267], [-71.207881, 42.297157], [-71.211565, 42.29973], [-71.211253, 42.302266], [-71.211289, 42.303106], [-71.213275, 42.306161], [-71.21819, 42.306796], [-71.220508, 42.306407], [-71.22411, 42.3073], [-71.226688, 42.30825], [-71.226311, 42.310284], [-71.227, 42.312208103038316], [-71.227, 42.31254747826087], [-71.226286, 42.314117], [-71.227, 42.314845768496426], [-71.227, 42.36364507296403], [-71.226639, 42.363752]]]}}, {"type": "Feature", "properties": {"name": "Somerville"}, "geometry": {"type": "Polygon", "coordinates": [[[-71.133869, 42.407042], [-71.132396, 42.40897], [-71.132887, 42.411973], [-71.132517, 42.414573], [-71.132435, 42.415216], [-71.131584, 42.41579], [-71.131629, 42.416622], [-71.126749, 42.418152], [-71.126121, 42.417647], [-71.126992, 42.41663], [-71.129922, 42.413327], [-71.12704, 42.412328], [-71.127868, 42.410581], [-71.12615, 42.409269], [-71.125687, 42.409984], [-71.12336, 42.409191], [-71.123294, 42.409169], [-71.123882, 42.408229], [-71.121668, 42.407088], [-71.117419, 42.405829], [-71.115541, 42.405145], [-71.114916, 42.402167], [-71.113868, 42.400985], [-71.11075, 42.399703], [-71.104464, 42.397584], [-71.101763, 42.396681], [-71.100394, 42.396224], [-71.099608, 42.397121], [-71.098349, 42.39856], [-71.096301, 42.400341], [-71.095526, 42.400114], [-71.093883, 42.399632], [-71.093007, 42.39923], [-71.085687, 42.400651], [-71.083423, 42.400013], [-71.077152, 42.396778], [-71.075996, 42.396396], [-71.075586, 42.395247], [-71.073496, 42.391796], [-71.077405, 42.386167], [-71.077638, 42.385838], [-71.078727, 42.384306], [-71.079428, 42.38332], [-71.080932, 42.382133], [-71.080701, 42.381039], [-71.075657, 42.380196], [-71.072689, 42.373222], [-71.074353, 42.37255], [-71.074946, 42.372918], [-71.075911, 42.374005], [-71.080984, 42.374043], [-71.081963, 42.373616], [-71.085443, 42.374045], [-71.086985, 42.373275], [-71.087512, 42.373402], [-71.089783, 42.373948], [-71.092826, 42.374185], [-71.094749, 42.374292], [-71.097416, 42.374428], [-71.101611, 42.374366], [-71.103204, 42.374327], [-71.105427, 42.376332], [-71.105943, 42.376819], [-71.107272, 42.378087], [-71.108457, 42.379112], [-71.107855, 42.379374], [-71.109649, 42.380833], [-71.110643, 42.38164], [-71.111656, 42.381749], [-71.115584, 42.385158], [-71.116159, 42.385843], [-71.11686, 42.386685], [-71.117737, 42.387556], [-71.118159, 42.388025], [-71.117452, 42.388386], [-71.117085, 42.389581], [-71.120214, 42.392641], [-71.120974, 42.393706], [-71.122987, 42.392377], [-71.124368, 42.393653], [-71.127361, 42.397096], [-71.127719, 42.397503], [-71.12879, 42.398723], [-71.130724, 42.400922], [-71.1313, 42.40158], [-71.133628, 42.403483], [-71.134514, 42.404167], [-71.134528, 42.405813], [-71.133869, 42.407042]]]}}, {"type": "Feature", "properties": {"name": "Cambridge"}, "geometry": {"type": "Polygon", "coordinates": [[[-71.158229, 42.386909], [-71.157317, 42.390953], [-71.158387, 42.394593], [-71.156385, 42.395823], [-71.156362, 42.395852], [-71.15494, 42.397564], [-71.152245, 42.400816], [-71.143593, 42.397412], [-71.143557, 42.397428], [-71.142803, 42.397878], [-71.141436, 42.398959], [-71.140372, 42.399831], [-71.136253, 42.401071], [-71.134921, 42.402562], [-71.134514, 42.404167], [-71.133628, 42.403483], [-71.1313, 42.40158], [-71.130724, 42.400922], [-71.12879, 42.398723], [-71.127719, 42.397503], [-71.127361, 42.397096], [-71.124368, 42.393653], [-71.122987, 42.392377], [-71.120974, 42.393706], [-71.120214, 42.392641], [-71.117085, 42.389581], [-71.117452, 42.388386], [-71.118159, 42.388025], [-71.117737, 42.387556], [-71.11686, 42.386685], [-71.116159, 42.385843], [-71.115584, 42.385158], [-71.111656, 42.381749], [-71.110643, 42.38164], [-71.109649, 42.380833], [-71.107855, 42.379374], [-71.108457, 42.379112], [-71.107272, 42.378087], [-71.105943, 42.376819], [-71.105427, 42.376332], [-71.103204, 42.374327], [-71.101611, 42.374366], [-71.097416, 42.374428], [-71.094749, 42.374292], [-71.092826, 42.374185], [-71.089783, 42.373948], [-71.087512, 42.373402], [-71.086985, 42.373275], [-71.085443, 42.374045], [-71.081963, 42.373616], [-71.080984, 42.374043], [-71.075911, 42.374005], [-71.074946, 42.372918], [-71.074353, 42.37255], [-71.072689, 42.373222], [-71.072466, 42.372658], [-71.070545, 42.372356], [-71.067115, 42.371816], [-71.064059, 42.369001], [-71.069478, 42.369046], [-71.070575, 42.368015], [-71.070644, 42.367949], [-71.071537, 42.36711], [-71.074792, 42.363773], [-71.075657, 42.361613], [-71.076092, 42.36038], [-71.077952, 42.358735], [-71.085175, 42.356333], [-71.087511, 42.355557], [-71.091235, 42.354338], [-71.093002, 42.353894], [-71.09789, 42.35312], [-71.103032, 42.352514], [-71.104316, 42.352403], [-71.110358, 42.352586], [-71.110589, 42.352616], [-71.113196, 42.35311], [-71.116852, 42.355385], [-71.117165, 42.356997], [-71.116681, 42.358736], [-71.116597, 42.359185], [-71.116704, 42.361255], [-71.116936, 42.363677], [-71.116921, 42.364246], [-71.11723, 42.367367], [-71.11896, 42.36876], [-71.123204, 42.368938], [-71.128203, 42.373572], [-71.130997, 42.373892], [-71.133179, 42.372338], [-71.131762, 42.369864], [-71.132373, 42.368891], [-71.136658, 42.366752], [-71.139892, 42.36444], [-71.143667, 42.365081], [-71.1439, 42.365628], [-71.142461, 42.367017], [-71.140599, 42.370017], [-71.139992, 42.373569], [-71.143925, 42.374074], [-71.143831, 42.375278], [-71.145695, 42.375217], [-71.145937, 42.375195], [-71.149864, 42.374451], [-71.150301, 42.374483], [-71.154373, 42.375095], [-71.154706, 42.376088], [-71.156231, 42.380636], [-71.155623, 42.381481], [-71.157792, 42.382211], [-71.157971, 42.382805], [-71.160332, 42.386444], [-71.160398, 42.386542], [-71.158229, 42.386909]]]}}, {"type": "Feature", "properties": {"name": "Canton"}, "geometry": {"type": "Polygon", "coordinates": [[[-71.146174, 42.204471], [-71.145667, 42.206072], [-71.14842, 42.206386], [-71.145922, 42.209227], [-71.144476, 42.210243], [-71.142595, 42.211391], [-71.143488, 42.212972], [-71.142413, 42.214525], [-71.142819, 42.215672], [-71.141386, 42.218671], [-71.142278, 42.219168], [-71.14074, 42.221451], [-71.14008, 42.223931], [-71.137098, 42.226728], [-71.134308, 42.227396], [-71.132605, 42.227107], [-71.130771, 42.227926], [-71.130749, 42.227911], [-71.130662, 42.227823], [-71.10325535367878, 42.201], [-71.14964499999999, 42.201], [-71.146174, 42.204471]]]}}, {"type": "Feature", "properties": {"name": "Boston"}, "geometry": {"type": "MultiPolygon", "coordinates": [[[[-70.930248, 42.322292], [-70.925969, 42.321909], [-70.925473, 42.319212], [-70.925308, 42.317223], [-70.928055, 42.317223], [-70.93076, 42.319027], [-70.93091, 42.321605], [-70.930248, 42.322292]]], [[[-70.931758, 42.333116], [-70.93068, 42.333698], [-70.929717, 42.333973], [-70.928692, 42.332324], [-70.926834, 42.330376], [-70.923068, 42.32699], [-70.922598, 42.326144], [-70.923722, 42.32536], [-70.924716, 42.32488], [-70.925883, 42.324944], [-70.92679, 42.32536], [-70.92705, 42.32635], [-70.927698, 42.327341], [-70.929383, 42.328171], [-70.930593, 42.328107], [-70.931414, 42.328267], [-70.93211, 42.328915], [-70.931025, 42.329673], [-70.930809, 42.331015], [-70.931241, 42.331909], [-70.932464, 42.332228], [-70.932091, 42.332698], [-70.931758, 42.333116]]], [[[-70.940749, 42.328139], [-70.937248, 42.3275], [-70.934947, 42.326807], [-70.936544, 42.324866], [-70.939854, 42.324245], [-70.942948, 42.325695], [-70.94278, 42.327181], [-70.940749, 42.328139]]], [[[-70.95434, 42.31299], [-70.951492, 42.313564], [-70.948515, 42.311937], [-70.94968, 42.311076], [-70.952399, 42.31098], [-70.9542866009988, 42.3086528340082], [-70.95434, 42.308587], [-70.957835, 42.309831], [-70.958094, 42.31165], [-70.95434, 42.31299]]], [[[-70.967257, 42.357069], [-70.967048, 42.356954], [-70.9668748754428, 42.3570563182718], [-70.962365, 42.354976], [-70.958599, 42.35551], [-70.953292, 42.349698], [-70.953022, 42.343973], [-70.960047, 42.346506], [-70.965276, 42.351424], [-70.9700244514225, 42.3552840314789], [-70.968935, 42.355925], [-70.967257, 42.357069]]], [[[-70.9769047642447, 42.3125742537046], [-70.9741558294847, 42.3141236176471], [-70.970392, 42.316245], [-70.967545, 42.322895], [-70.957268, 42.331661], [-70.952805, 42.330627], [-70.953693, 42.327921], [-70.95913, 42.324572], [-70.963531, 42.318542], [-70.965732, 42.313469], [-70.968968, 42.31299], [-70.971169, 42.311171], [-70.974273, 42.310198], [-70.977219, 42.310249], [-70.977402, 42.312294], [-70.9769047642447, 42.3125742537046]]], [[[-70.984243, 42.3284], [-70.983078, 42.327156], [-70.983984, 42.321317], [-70.985667, 42.318733], [-70.988774, 42.319212], [-70.988903, 42.32371], [-70.991621, 42.326294], [-70.989162, 42.328304], [-70.984243, 42.3284]]], [[[-71.01132, 42.316355], [-71.006364, 42.320911], [-71.000305, 42.321282], [-70.999534, 42.31992], [-71.000371, 42.319326], [-71.003251, 42.319524], [-71.006699, 42.316133], [-71.011487, 42.309299], [-71.014601, 42.309869], [-71.017179, 42.311751], [-71.016643, 42.313731], [-71.01132, 42.316355]]], [[[-71.178636, 42.294595], [-71.169808, 42.300443], [-71.164702, 42.30383], [-71.153691, 42.295746], [-71.152113, 42.294588], [-71.1503, 42.29553], [-71.146883, 42.29728], [-71.140135, 42.302147], [-71.136502, 42.306204], [-71.134359, 42.309252], [-71.131863, 42.313178], [-71.130642, 42.31453], [-71.123711, 42.322716], [-71.121528, 42.323882], [-71.120112, 42.322835], [-71.119539, 42.322745], [-71.116537, 42.323939], [-71.115929, 42.325855], [-71.115563, 42.32678], [-71.114547, 42.328372], [-71.113088, 42.332604], [-71.111413, 42.334525], [-71.110808, 42.335586], [-71.110751, 42.336168], [-71.111551, 42.337299], [-71.110597, 42.340405], [-71.108225, 42.342272], [-71.105516, 42.343812], [-71.10674, 42.34604], [-71.107213, 42.347049], [-71.106894, 42.348588], [-71.106854, 42.348759], [-71.106702, 42.349433], [-71.10657, 42.349912], [-71.110936, 42.350446], [-71.115808, 42.351017], [-71.120286, 42.351557], [-71.121311, 42.351675], [-71.122855, 42.351861], [-71.123518, 42.351486], [-71.124067, 42.351552], [-71.126215, 42.350412], [-71.12858, 42.349696], [-71.129746, 42.34885], [-71.133381, 42.347122], [-71.134254, 42.346577], [-71.135155, 42.346023], [-71.135985, 42.345366], [-71.137824, 42.343876], [-71.138809, 42.343087], [-71.139977, 42.34214], [-71.141298, 42.34107], [-71.141754, 42.340396], [-71.144212, 42.340022], [-71.144779, 42.339657], [-71.146215, 42.338632], [-71.146156, 42.337442], [-71.147266, 42.337201], [-71.148482, 42.336253], [-71.148295, 42.335807], [-71.150104, 42.335282], [-71.149853, 42.334635], [-71.156262, 42.330847], [-71.157036, 42.33039], [-71.160917, 42.333639], [-71.162732, 42.333961], [-71.167565, 42.333441], [-71.168886, 42.335826], [-71.168936, 42.338449], [-71.16674, 42.339854], [-71.166699, 42.340009], [-71.174265, 42.349584], [-71.174798, 42.350265], [-71.173935, 42.353397], [-71.171387, 42.356089], [-71.169474, 42.358047], [-71.167625, 42.360073], [-71.163888, 42.358523], [-71.161508, 42.358972], [-71.159746, 42.359781], [-71.154475, 42.360036], [-71.148332, 42.361119], [-71.14717, 42.361754], [-71.144492, 42.364822], [-71.143667, 42.365081], [-71.139892, 42.36444], [-71.136658, 42.366752], [-71.132373, 42.368891], [-71.131762, 42.369864], [-71.133179, 42.372338], [-71.130997, 42.373892], [-71.128203, 42.373572], [-71.123204, 42.368938], [-71.11896, 42.36876], [-71.11723, 42.367367], [-71.116921, 42.364246], [-71.116936, 42.363677], [-71.116704, 42.361255], [-71.116597, 42.359185], [-71.116681, 42.358736], [-71.117165, 42.356997], [-71.116852, 42.355385], [-71.113196, 42.35311], [-71.110589, 42.352616], [-71.110358, 42.352586], [-71.104316, 42.352403], [-71.103032, 42.352514], [-71.09789, 42.35312], [-71.093002, 42.353894], [-71.091235, 42.354338], [-71.087511, 42.355557], [-71.085175, 42.356333], [-71.077952, 42.358735], [-71.076092, 42.36038], [-71.075657, 42.361613], [-71.074792, 42.363773], [-71.071537, 42.36711], [-71.070644, 42.367949], [-71.070575, 42.368015], [-71.069478, 42.369046], [-71.064059, 42.369001], [-71.067115, 42.371816], [-71.070545, 42.372356], [-71.072466, 42.372658], [-71.072689, 42.373222], [-71.075657, 42.380196], [-71.080701, 42.381039], [-71.080932, 42.382133], [-71.079428, 42.38332], [-71.078727, 42.384306], [-71.077638, 42.385838], [-71.077405, 42.386167], [-71.073496, 42.391796], [-71.072696, 42.390796], [-71.069322, 42.394022], [-71.066944, 42.394755], [-71.066997, 42.394006], [-71.070696, 42.389596], [-71.070896, 42.388996], [-71.065695, 42.386596], [-71.055524, 42.387119], [-71.055295, 42.387097], [-71.048186, 42.385686], [-71.047284, 42.385284], [-71.044298, 42.383209], [-71.043264, 42.383594], [-71.039262, 42.386831], [-71.038357, 42.386529], [-71.031995, 42.384597], [-71.027712, 42.384041], [-71.022672, 42.386265], [-71.020512, 42.387641], [-71.017794, 42.390697], [-71.016094, 42.395897], [-71.013395, 42.397398], [-71.011272, 42.396589], [-71.01193, 42.395752], [-71.010001, 42.39549], [-71.005861, 42.393892], [-71.001407, 42.39674], [-71.000683, 42.396817], [-70.996475, 42.396308], [-70.995047, 42.393566], [-70.994454, 42.393316], [-70.989771, 42.39324], [-70.987974, 42.392817], [-70.987289, 42.388734], [-70.986053, 42.388116], [-70.986621, 42.387138], [-70.988281, 42.387107], [-70.994239, 42.384647], [-70.994634, 42.382711], [-70.994648, 42.38115], [-70.997994, 42.378197], [-71.000206, 42.377754], [-71.006123, 42.376052], [-71.010363, 42.365031], [-71.0016199959101, 42.3646770423249], [-70.997719, 42.360562], [-70.988035, 42.36188], [-70.9858852713334, 42.3590611504902], [-70.985317, 42.358316], [-70.9857395963913, 42.3579345351261], [-70.98955, 42.354495], [-70.994337, 42.353909], [-70.999577, 42.356408], [-71.003741, 42.356037], [-71.005579, 42.347362], [-71.007807, 42.347145], [-71.0277, 42.358625], [-71.026351, 42.361819], [-71.0264628524305, 42.3622050393619], [-71.026916, 42.363769], [-71.029638, 42.363352], [-71.037999, 42.363753], [-71.0416821697615, 42.3664873177287], [-71.042626, 42.367188], [-71.0437334980831, 42.3699110078238], [-71.04466, 42.372189], [-71.046817295921, 42.3730407567864], [-71.047018, 42.37312], [-71.050598, 42.372872], [-71.052642, 42.370788], [-71.0526194076875, 42.370697], [-71.052248, 42.369201], [-71.05048, 42.368073], [-71.0503521192944, 42.3662546219372], [-71.0502102174239, 42.364236872291], [-71.0502003654495, 42.364096783808], [-71.0498956435004, 42.3597638415945], [-71.049673, 42.356598], [-71.0482832741435, 42.356018539708], [-71.0339662859699, 42.3500489262703], [-71.013895, 42.34168], [-71.0109482949352, 42.3396711987028], [-71.010926, 42.339656], [-71.010177, 42.337557], [-71.015664, 42.330518], [-71.024151, 42.333159], [-71.034704, 42.328762], [-71.042333, 42.330142], [-71.047648, 42.328087], [-71.047426, 42.323428], [-71.0467260009414, 42.323070744949], [-71.0400298066474, 42.3196532414466], [-71.033099, 42.316116], [-71.032777, 42.313472], [-71.036893, 42.310513], [-71.037904, 42.310435], [-71.040961, 42.312152], [-71.042335, 42.311693], [-71.0423475868322, 42.3115348119403], [-71.04249, 42.309745], [-71.044832, 42.309193], [-71.0474393475483, 42.3037469777322], [-71.047616, 42.303378], [-71.044495, 42.301496], [-71.045971080436, 42.2993124833707], [-71.046786, 42.298107], [-71.0437321577228, 42.2929582753061], [-71.043697, 42.292899], [-71.03988, 42.292455], [-71.037974, 42.288675], [-71.039306, 42.285495], [-71.0381271228924, 42.284715047516], [-71.03908, 42.283966], [-71.039293, 42.283799], [-71.040494, 42.281898], [-71.041594, 42.278098], [-71.042782, 42.277102], [-71.04488, 42.276266], [-71.049802, 42.2781], [-71.053284, 42.277502], [-71.055575, 42.275052], [-71.053494, 42.272458], [-71.053836, 42.271699], [-71.062189, 42.267159], [-71.064695, 42.268607], [-71.065097, 42.270659], [-71.067815, 42.271396], [-71.06814, 42.271], [-71.072044, 42.270817], [-71.073264, 42.270317], [-71.075246, 42.2703], [-71.076492, 42.270509], [-71.080852, 42.269322], [-71.082761, 42.268634], [-71.089403, 42.26969], [-71.090258, 42.266639], [-71.093736, 42.267136], [-71.093908, 42.26714], [-71.097483, 42.263089], [-71.097899, 42.262882], [-71.103672, 42.259723], [-71.104062, 42.259862], [-71.105001, 42.260804], [-71.108405, 42.261116], [-71.11146, 42.260769], [-71.11326, 42.258926], [-71.113009, 42.258689], [-71.112392, 42.258116], [-71.109544, 42.255412], [-71.109465, 42.25241], [-71.109347, 42.24799], [-71.112057, 42.246585], [-71.114563, 42.245284], [-71.116529, 42.244274], [-71.12567, 42.239527], [-71.126377, 42.239162], [-71.122602, 42.234515], [-71.124587, 42.234012], [-71.125477, 42.231882], [-71.12742, 42.231176], [-71.130749, 42.227911], [-71.130771, 42.227926], [-71.136665, 42.23191], [-71.139241, 42.23366], [-71.142681, 42.235998], [-71.143498, 42.240065], [-71.144069, 42.242819], [-71.146127, 42.252964], [-71.146306, 42.253933], [-71.146642, 42.255755], [-71.150386, 42.25746], [-71.152118, 42.258247], [-71.155958, 42.256485], [-71.158584, 42.255155], [-71.161574, 42.257546], [-71.163393, 42.259023], [-71.167393, 42.262197], [-71.168604, 42.26316], [-71.171541, 42.266142], [-71.174154, 42.267021], [-71.174609, 42.268373], [-71.172953, 42.270298], [-71.173342, 42.270849], [-71.173583, 42.271415], [-71.174847, 42.273729], [-71.174418, 42.275042], [-71.174565, 42.275576], [-71.174972, 42.276004], [-71.177461, 42.276868], [-71.183159, 42.275913], [-71.185307, 42.279497], [-71.18599, 42.279771], [-71.188212, 42.280438], [-71.190753, 42.28184], [-71.191247, 42.282992], [-71.190904, 42.283248], [-71.178636, 42.294595]]]]}}]}